CTC2_L_00186001-01
1 12477U 24424CO  26070.40844907  .00000000  00000+0  00000-0 0  9997
2 12477  85.0000   0.0000 0000000   0.0000   0.0000 14.79785908    15
CTC2_L_00186001-02
1 12478U 22662TJ  26070.40844907  .00000000  00000+0  00000-0 0  9990
2 12478  85.0000   0.0000 0000000   0.0000  90.0000 14.79785908    15
CTC2_L_00186001-03
1 12479U 23243JH  26070.40844907  .00000000  00000+0  00000-0 0  9997
2 12479  85.0000   0.0000 0000000   0.0000 180.0000 14.79785908    16
CTC2_L_00186001-04
1 12480U 25044P   26070.40844907  .00000000  00000+0  00000-0 0  9990
2 12480  85.0000   0.0000 0000000   0.0000 270.0000 14.79785908    18
CTC2_L_00186002-01
1 12481U 26514FX  26070.40844907  .00000000  00000+0  00000-0 0  9994
2 12481  85.0000  12.0000 0000000   0.0000  12.0000 14.79785908    16
CTC2_L_00186002-02
1 12482U 26011DX  26070.40844907  .00000000  00000+0  00000-0 0  9997
2 12482  85.0000  12.0000 0000000   0.0000 102.0000 14.79785908    17
CTC2_L_00186002-03
1 12483U 23474ZD  26070.40844907  .00000000  00000+0  00000-0 0  9998
2 12483  85.0000  12.0000 0000000   0.0000 192.0000 14.79785908    17
CTC2_L_00186002-04
1 12484U 26617UH  26070.40844907  .00000000  00000+0  00000-0 0  9991
2 12484  85.0000  12.0000 0000000   0.0000 282.0000 14.79785908    18
CTC2_L_00186003-01
1 12485U 23262OJ  26070.40844907  .00000000  00000+0  00000-0 0  9995
2 12485  85.0000  24.0000 0000000   0.0000  24.0000 14.79785908    16
CTC2_L_00186003-02
1 12486U 24146XA  26070.40844907  .00000000  00000+0  00000-0 0  9998
2 12486  85.0000  24.0000 0000000   0.0000 114.0000 14.79785908    17
CTC2_L_00186003-03
1 12487U 24132NJ  26070.40844907  .00000000  00000+0  00000-0 0  9994
2 12487  85.0000  24.0000 0000000   0.0000 204.0000 14.79785908    18
CTC2_L_00186003-04
1 12488U 25209HH  26070.40844907  .00000000  00000+0  00000-0 0  9991
2 12488  85.0000  24.0000 0000000   0.0000 294.0000 14.79785908    18
CTC2_L_00186004-01
1 12489U 22639CD  26070.40844907  .00000000  00000+0  00000-0 0  9996
2 12489  85.0000  36.0000 0000000   0.0000  36.0000 14.79785908    16
CTC2_L_00186004-02
1 12490U 22978AZ  26070.40844907  .00000000  00000+0  00000-0 0  9994
2 12490  85.0000  36.0000 0000000   0.0000 126.0000 14.79785908    18
CTC2_L_00186004-03
1 12491U 24026FP  26070.40844907  .00000000  00000+0  00000-0 0  9991
2 12491  85.0000  36.0000 0000000   0.0000 216.0000 14.79785908    19
CTC2_L_00186004-04
1 12492U 24508WS  26070.40844907  .00000000  00000+0  00000-0 0  9997
2 12492  85.0000  36.0000 0000000   0.0000 306.0000 14.79785908    10
CTC2_L_00186005-01
1 12493U 22721EY  26070.40844907  .00000000  00000+0  00000-0 0  9993
2 12493  85.0000  48.0000 0000000   0.0000  48.0000 14.79785908    17
CTC2_L_00186005-02
1 12494U 23390DV  26070.40844907  .00000000  00000+0  00000-0 0  9997
2 12494  85.0000  48.0000 0000000   0.0000 138.0000 14.79785908    18
CTC2_L_00186005-03
1 12495U 26766RZ  26070.40844907  .00000000  00000+0  00000-0 0  9998
2 12495  85.0000  48.0000 0000000   0.0000 228.0000 14.79785908    19
CTC2_L_00186005-04
1 12496U 22591CM  26070.40844907  .00000000  00000+0  00000-0 0  9991
2 12496  85.0000  48.0000 0000000   0.0000 318.0000 14.79785908    10
CTC2_L_00186006-01
1 12497U 25735GT  26070.40844907  .00000000  00000+0  00000-0 0  9995
2 12497  85.0000  60.0000 0000000   0.0000  60.0000 14.79785908    19
CTC2_L_00186006-02
1 12498U 24099ZZ  26070.40844907  .00000000  00000+0  00000-0 0  9998
2 12498  85.0000  60.0000 0000000   0.0000 150.0000 14.79785908    10
CTC2_L_00186006-03
1 12499U 25448UH  26070.40844907  .00000000  00000+0  00000-0 0  9998
2 12499  85.0000  60.0000 0000000   0.0000 240.0000 14.79785908    11
CTC2_L_00186006-04
1 12500U 24371NI  26070.40844907  .00000000  00000+0  00000-0 0  9995
2 12500  85.0000  60.0000 0000000   0.0000 330.0000 14.79785908    14
CTC2_L_00186007-01
1 12501U 22992DH  26070.40844907  .00000000  00000+0  00000-0 0  9993
2 12501  85.0000  72.0000 0000000   0.0000  72.0000 14.79785908    11
CTC2_L_00186007-02
1 12502U 23324ZQ  26070.40844907  .00000000  00000+0  00000-0 0  9994
2 12502  85.0000  72.0000 0000000   0.0000 162.0000 14.79785908    12
CTC2_L_00186007-03
1 12503U 26428WP  26070.40844907  .00000000  00000+0  00000-0 0  9993
2 12503  85.0000  72.0000 0000000   0.0000 252.0000 14.79785908    13
CTC2_L_00186007-04
1 12504U 22516JI  26070.40844907  .00000000  00000+0  00000-0 0  9998
2 12504  85.0000  72.0000 0000000   0.0000 342.0000 14.79785908    14
CTC2_L_00186008-01
1 12505U 25238BB  26070.40844907  .00000000  00000+0  00000-0 0  9993
2 12505  85.0000  84.0000 0000000   0.0000  84.0000 14.79785908    11
CTC2_L_00186008-02
1 12506U 24019YT  26070.40844907  .00000000  00000+0  00000-0 0  9990
2 12506  85.0000  84.0000 0000000   0.0000 174.0000 14.79785908    12
CTC2_L_00186008-03
1 12507U 23736XJ  26070.40844907  .00000000  00000+0  00000-0 0  9996
2 12507  85.0000  84.0000 0000000   0.0000 264.0000 14.79785908    13
CTC2_L_00186008-04
1 12508U 26209GW  26070.40844907  .00000000  00000+0  00000-0 0  9995
2 12508  85.0000  84.0000 0000000   0.0000 354.0000 14.79785908    14
CTC2_L_00186009-01
1 12509U 26111KB  26070.40844907  .00000000  00000+0  00000-0 0  9998
2 12509  85.0000  96.0000 0000000   0.0000  96.0000 14.79785908    11
CTC2_L_00186009-02
1 12510U 25603SW  26070.40844907  .00000000  00000+0  00000-0 0  9995
2 12510  85.0000  96.0000 0000000   0.0000 186.0000 14.79785908    13
CTC2_L_00186009-03
1 12511U 25192FX  26070.40844907  .00000000  00000+0  00000-0 0  9999
2 12511  85.0000  96.0000 0000000   0.0000 276.0000 14.79785908    14
CTC2_L_00186009-04
1 12512U 23396CU  26070.40844907  .00000000  00000+0  00000-0 0  9994
2 12512  85.0000  96.0000 0000000   0.0000   6.0000 14.79785908    16
CTC2_L_00186010-01
1 12513U 24169MK  26070.40844907  .00000000  00000+0  00000-0 0  9994
2 12513  85.0000 108.0000 0000000   0.0000 108.0000 14.79785908    14
CTC2_L_00186010-02
1 12514U 24034QV  26070.40844907  .00000000  00000+0  00000-0 0  9996
2 12514  85.0000 108.0000 0000000   0.0000 198.0000 14.79785908    14
CTC2_L_00186010-03
1 12515U 22097XI  26070.40844907  .00000000  00000+0  00000-0 0  9994
2 12515  85.0000 108.0000 0000000   0.0000 288.0000 14.79785908    15
CTC2_L_00186010-04
1 12516U 22190OU  26070.40844907  .00000000  00000+0  00000-0 0  9999
2 12516  85.0000 108.0000 0000000   0.0000  18.0000 14.79785908    17
CTC2_L_00186011-01
1 12517U 26990XI  26070.40844907  .00000000  00000+0  00000-0 0  9992
2 12517  85.0000 120.0000 0000000   0.0000 120.0000 14.79785908    16
CTC2_L_00186011-02
1 12518U 22157VA  26070.40844907  .00000000  00000+0  00000-0 0  9994
2 12518  85.0000 120.0000 0000000   0.0000 210.0000 14.79785908    17
CTC2_L_00186011-03
1 12519U 22049L   26070.40844907  .00000000  00000+0  00000-0 0  9995
2 12519  85.0000 120.0000 0000000   0.0000 300.0000 14.79785908    18
CTC2_L_00186011-04
1 12520U 22526DV  26070.40844907  .00000000  00000+0  00000-0 0  9997
2 12520  85.0000 120.0000 0000000   0.0000  30.0000 14.79785908    10
CTC2_L_00186012-01
1 12521U 25856WI  26070.40844907  .00000000  00000+0  00000-0 0  9997
2 12521  85.0000 132.0000 0000000   0.0000 132.0000 14.79785908    17
CTC2_L_00186012-02
1 12522U 22536DR  26070.40844907  .00000000  00000+0  00000-0 0  9990
2 12522  85.0000 132.0000 0000000   0.0000 222.0000 14.79785908    18
CTC2_L_00186012-03
1 12523U 24539GU  26070.40844907  .00000000  00000+0  00000-0 0  9996
2 12523  85.0000 132.0000 0000000   0.0000 312.0000 14.79785908    19
CTC2_L_00186012-04
1 12524U 26524AW  26070.40844907  .00000000  00000+0  00000-0 0  9993
2 12524  85.0000 132.0000 0000000   0.0000  42.0000 14.79785908    10
CTC2_L_00186013-01
1 12525U 23579SR  26070.40844907  .00000000  00000+0  00000-0 0  9991
2 12525  85.0000 144.0000 0000000   0.0000 144.0000 14.79785908    17
CTC2_L_00186013-02
1 12526U 25419NX  26070.40844907  .00000000  00000+0  00000-0 0  9997
2 12526  85.0000 144.0000 0000000   0.0000 234.0000 14.79785908    18
CTC2_L_00186013-03
1 12527U 26333WK  26070.40844907  .00000000  00000+0  00000-0 0  9994
2 12527  85.0000 144.0000 0000000   0.0000 324.0000 14.79785908    19
CTC2_L_00186013-04
1 12528U 25638OB  26070.40844907  .00000000  00000+0  00000-0 0  9992
2 12528  85.0000 144.0000 0000000   0.0000  54.0000 14.79785908    10
CTC2_L_00186014-01
1 12529U 24380YO  26070.40844907  .00000000  00000+0  00000-0 0  9996
2 12529  85.0000 156.0000 0000000   0.0000 156.0000 14.79785908    17
CTC2_L_00186014-02
1 12530U 23023GV  26070.40844907  .00000000  00000+0  00000-0 0  9991
2 12530  85.0000 156.0000 0000000   0.0000 246.0000 14.79785908    19
CTC2_L_00186014-03
1 12531U 22545YQ  26070.40844907  .00000000  00000+0  00000-0 0  9990
2 12531  85.0000 156.0000 0000000   0.0000 336.0000 14.79785908    10
CTC2_L_00186014-04
1 12532U 25338U   26070.40844907  .00000000  00000+0  00000-0 0  9994
2 12532  85.0000 156.0000 0000000   0.0000  66.0000 14.79785908    11
CTC2_L_00186015-01
1 12533U 24563YW  26070.40844907  .00000000  00000+0  00000-0 0  9994
2 12533  85.0000 168.0000 0000000   0.0000 168.0000 14.79785908    18
CTC2_L_00186015-02
1 12534U 24076F   26070.40844907  .00000000  00000+0  00000-0 0  9994
2 12534  85.0000 168.0000 0000000   0.0000 258.0000 14.79785908    19
CTC2_L_00186015-03
1 12535U 26567CM  26070.40844907  .00000000  00000+0  00000-0 0  9992
2 12535  85.0000 168.0000 0000000   0.0000 348.0000 14.79785908    10
CTC2_L_00186015-04
1 12536U 25174MS  26070.40844907  .00000000  00000+0  00000-0 0  9996
2 12536  85.0000 168.0000 0000000   0.0000  78.0000 14.79785908    11
CTC2_L_00186016-01
1 12537U 24358DD  26070.40844907  .00000000  00000+0  00000-0 0  9990
2 12537  85.0000 180.0000 0000000   0.0000 180.0000 14.79785908    10
CTC2_L_00186016-02
1 12538U 25425NI  26070.40844907  .00000000  00000+0  00000-0 0  9997
2 12538  85.0000 180.0000 0000000   0.0000 270.0000 14.79785908    11
